*******************************************************************************
Ephemeris / WWW_USER Wed Mar 14 15:41:03 2018 Pasadena, USA      / Horizons    
*******************************************************************************
Target body name: Thebe (514)                     {source: jup310}
Center body name: Solar System Barycenter (0)     {source: DE431mx}
Center-site name: BODY CENTER
*******************************************************************************
Start time      : A.D. 2000-Jan-01 00:00:00.0000 TDB
Stop  time      : A.D. 2001-Jan-01 00:00:00.0000 TDB
Step-size       : 7200 minutes
*******************************************************************************
Center geodetic : 0.00000000,0.00000000,0.0000000 {E-lon(deg),Lat(deg),Alt(km)}
Center cylindric: 0.00000000,0.00000000,0.0000000 {E-lon(deg),Dxy(km),Dz(km)}
Center radii    : (undefined)                                                  
Output units    : AU-D                                                         
Output type     : GEOMETRIC cartesian states
Output format   : 2 (position and velocity)
Reference frame : ICRF/J2000.0                                                 
Coordinate systm: Ecliptic and Mean Equinox of Reference Epoch                 
*******************************************************************************
JDTDB
   X     Y     Z
   VX    VY    VZ
*******************************************************************************
$$SOE
2451544.500000000 = A.D. 2000-Jan-01 00:00:00.0000 TDB 
   3.996539934345178E+00  2.931098382036766E+00 -1.016904557518076E-01
   9.087330108396224E-03  8.702141101566876E-03  4.872501800233650E-04
2451549.500000000 = A.D. 2000-Jan-06 00:00:00.0000 TDB 
   3.973895385876986E+00  2.966054010352079E+00 -1.011532555924389E-01
  -1.769206045791386E-02  1.121155668462422E-02  2.577987801876443E-05
2451554.500000000 = A.D. 2000-Jan-11 00:00:00.0000 TDB 
   3.949050788899785E+00  2.995698313424265E+00 -1.009276205191015E-01
   3.549784240458898E-03 -4.461192067734103E-03 -2.756174348121538E-04
2451559.500000000 = A.D. 2000-Jan-16 00:00:00.0000 TDB 
   3.928319089147339E+00  3.028480641257692E+00 -1.004138050315633E-01
  -6.095037353538908E-03  2.029416168637722E-02  7.447191710959654E-04
2451564.500000000 = A.D. 2000-Jan-21 00:00:00.0000 TDB 
   3.901870875144001E+00  3.060517273231671E+00 -1.000696145204233E-01
  -1.045885058312998E-02 -6.106873590963947E-03 -6.870385664704158E-04
2451569.500000000 = A.D. 2000-Jan-26 00:00:00.0000 TDB 
   3.880139980958533E+00  3.090018468610762E+00 -9.969461939396558E-02
   6.904422231463482E-03  1.354440592350503E-02  7.709220814473152E-04
2451574.500000000 = A.D. 2000-Jan-31 00:00:00.0000 TDB 
   3.855199227959448E+00  3.123947804943700E+00 -9.918195227803880E-02
  -1.879776487434415E-02  5.683333222606620E-03 -3.682058208558854E-04
2451579.500000000 = A.D. 2000-Feb-05 00:00:00.0000 TDB 
   3.830184777187668E+00  3.152189365543008E+00 -9.891147975347850E-02
   6.841721488920312E-03 -6.609258757126971E-04  1.525592704957691E-04
2451584.500000000 = A.D. 2000-Feb-10 00:00:00.0000 TDB 
   3.807678696177069E+00  3.184978568296589E+00 -9.833802326689009E-02
  -1.153200815527843E-02  1.852786760496929E-02  3.936348993146766E-04
2451589.500000000 = A.D. 2000-Feb-15 00:00:00.0000 TDB 
   3.780098745343435E+00  3.214962283448490E+00 -9.802771145707020E-02
  -5.487290399396073E-03 -7.577751296737093E-03 -4.802034484080600E-04
2451594.500000000 = A.D. 2000-Feb-20 00:00:00.0000 TDB 
   3.757770905758455E+00  3.244470563348115E+00 -9.754016746448974E-02
   2.962078689920330E-03  1.725636127090065E-02  7.802603527133605E-04
2451599.500000000 = A.D. 2000-Feb-25 00:00:00.0000 TDB 
   3.730702746762748E+00  3.276913664041857E+00 -9.707919341276379E-02
  -1.778463153677631E-02  2.036232329339465E-04 -5.464280143915209E-04
2451604.500000000 = A.D. 2000-Mar-01 00:00:00.0000 TDB 
   3.705656810755112E+00  3.304134714240151E+00 -9.671810702812406E-02
   8.334295160757519E-03  4.183212767993201E-03  4.761198660299913E-04
2451609.500000000 = A.D. 2000-Mar-06 00:00:00.0000 TDB 
   3.681105897999990E+00  3.336582685578394E+00 -9.614195151260919E-02
  -1.595839466436981E-02  1.488669945980010E-02  2.174178458352564E-05
2451614.500000000 = A.D. 2000-Mar-11 00:00:00.0000 TDB 
   3.652861100793955E+00  3.364561045174321E+00 -9.581304795811850E-02
  -4.103839763880127E-04 -6.961737483756660E-03 -1.404733610525813E-04
2451619.500000000 = A.D. 2000-Mar-16 00:00:00.0000 TDB 
   3.629561454095417E+00  3.394181058025009E+00 -9.525267239813590E-02
  -2.171079086968197E-03  1.924020494690757E-02  5.693447906561860E-04
2451624.500000000 = A.D. 2000-Mar-21 00:00:00.0000 TDB 
   3.600681232069283E+00  3.424758853853305E+00 -9.482680402650823E-02
  -1.484214086953542E-02 -4.423952213734401E-03 -4.719421014932414E-04
2451629.500000000 = A.D. 2000-Mar-26 00:00:00.0000 TDB 
   3.575585968020445E+00  3.451340903590706E+00 -9.436961798974758E-02
   7.770289241554301E-03  9.303718087241329E-03  5.729219370879667E-04
2451634.500000000 = A.D. 2000-Mar-31 00:00:00.0000 TDB 
   3.548856820361705E+00  3.483010369146338E+00 -9.381985631095452E-02
  -1.874140856631092E-02  9.890671724403213E-03 -1.879775942048846E-04
2451639.500000000 = A.D. 2000-Apr-05 00:00:00.0000 TDB 
   3.520338372212579E+00  3.509196555170520E+00 -9.343068356068088E-02
   3.962395539636151E-03 -4.376864324709280E-03  1.320299667298111E-04
2451644.500000000 = A.D. 2000-Apr-10 00:00:00.0000 TDB 
   3.495679802583433E+00  3.538853469484455E+00 -9.284561342592108E-02
  -7.747201988055565E-03  1.916549829639307E-02  3.179318221964347E-04
2451649.500000000 = A.D. 2000-Apr-15 00:00:00.0000 TDB 
   3.465414156256670E+00  3.567319272026891E+00 -9.241363629497303E-02
  -1.043864344922949E-02 -7.519356352489186E-03 -2.727436517581143E-04
2451654.500000000 = A.D. 2000-Apr-20 00:00:00.0000 TDB 
   3.440084445080844E+00  3.593601688277968E+00 -9.189020545068304E-02
   5.195906738634730E-03  1.387569052933878E-02  4.908253897111356E-04
2451659.500000000 = A.D. 2000-Apr-25 00:00:00.0000 TDB 
   3.411213347161936E+00  3.624012973082152E+00 -9.135652040651954E-02
  -1.949528021261408E-02  4.271115459051580E-03 -1.991670226623747E-04
2451664.500000000 = A.D. 2000-Apr-30 00:00:00.0000 TDB 
   3.382699719552264E+00  3.648731333145695E+00 -9.090144457610003E-02
   6.934072846398055E-03 -2.412559553960204E-04  2.307437061720980E-04
2451669.500000000 = A.D. 2000-May-05 00:00:00.0000 TDB 
   3.356331610053554E+00  3.678199122978202E+00 -9.031416423001072E-02
  -1.295079076400109E-02  1.701230702795613E-02  1.852656197424225E-04
2451674.500000000 = A.D. 2000-May-10 00:00:00.0000 TDB 
   3.325155741283249E+00  3.704471634278044E+00 -8.984523286979688E-02
  -5.271631166994306E-03 -8.641711536461044E-03 -1.281343968621731E-04
2451679.500000000 = A.D. 2000-May-15 00:00:00.0000 TDB 
   3.299291704435242E+00  3.730668831378190E+00 -8.929117170292675E-02
   9.742832701593116E-04  1.716575229533764E-02  3.909719713287906E-04
2451684.500000000 = A.D. 2000-May-20 00:00:00.0000 TDB 
   3.268480227666585E+00  3.759381738233560E+00 -8.874274273375636E-02
  -1.813524275061501E-02 -1.148583958115843E-03 -1.304649114098901E-04
2451689.500000000 = A.D. 2000-May-25 00:00:00.0000 TDB 
   3.240085937055434E+00  3.783027261512913E+00 -8.824622906389967E-02
   8.007569293933198E-03  4.781198383192027E-03  2.120365651324037E-04
2451694.500000000 = A.D. 2000-May-30 00:00:00.0000 TDB 
   3.211770446236618E+00  3.811933845939660E+00 -8.764481766885626E-02
  -1.701469354332558E-02  1.308516007098403E-02  1.893630066980805E-04
2451699.500000000 = A.D. 2000-Jun-04 00:00:00.0000 TDB 
   3.180147495318693E+00  3.836103213191445E+00 -8.714083135894671E-02
  -1.509048214374778E-04 -7.650412042070225E-03 -1.201036749389907E-04
2451704.500000000 = A.D. 2000-Jun-09 00:00:00.0000 TDB 
   3.153367670649754E+00  3.862290354082483E+00 -8.656614487507720E-02
  -4.283535703898745E-03  1.863038982286764E-02  4.025964163323372E-04
2451709.500000000 = A.D. 2000-Jun-14 00:00:00.0000 TDB 
   3.120965852404046E+00  3.888951142029438E+00 -8.598559264935524E-02
  -1.490207954231774E-02 -5.576569189646441E-03 -1.396416478549429E-04
2451714.500000000 = A.D. 2000-Jun-19 00:00:00.0000 TDB 
   3.092644682190938E+00  3.911907976117102E+00 -8.547271647939089E-02
   6.985794301134112E-03  9.893630205233553E-03  2.305733314248123E-04
2451719.500000000 = A.D. 2000-Jun-24 00:00:00.0000 TDB 
   3.062285325211889E+00  3.939811394749596E+00 -8.483110444648639E-02
  -1.934799054188079E-02  7.953174029998169E-03  2.065397047187416E-04
2451724.500000000 = A.D. 2000-Jun-29 00:00:00.0000 TDB 
   3.030596640907782E+00  3.962120133919213E+00 -8.431895624540207E-02
   4.112833900758092E-03 -4.729935001123938E-03 -1.719460705258371E-04
2451729.500000000 = A.D. 2000-Jul-04 00:00:00.0000 TDB 
   3.002521960561612E+00  3.988190881057197E+00 -8.370273841219807E-02
  -9.795770761861616E-03  1.801165616039383E-02  5.121045376715701E-04
2451734.500000000 = A.D. 2000-Jul-09 00:00:00.0000 TDB 
   2.968975248152922E+00  4.012596309776074E+00 -8.310500488573325E-02
  -1.031979969271656E-02 -8.376232097152787E-03 -2.803989390899488E-04
2451739.500000000 = A.D. 2000-Jul-14 00:00:00.0000 TDB 
   2.940520309160251E+00  4.035189795037280E+00 -8.257263063927045E-02
   3.986805961428500E-03  1.427568219965497E-02  3.931161494974422E-04
2451744.500000000 = A.D. 2000-Jul-19 00:00:00.0000 TDB 
   2.908198227854682E+00  4.061615388047863E+00 -8.188400892914582E-02
  -1.962345944478547E-02  2.375451530984378E-03  9.141953361278760E-05
2451749.500000000 = A.D. 2000-Jul-24 00:00:00.0000 TDB 
   2.876696890363111E+00  4.082415519962242E+00 -8.138485571469653E-02
   6.850392459892303E-03 -3.587259001703833E-04 -1.217360796298056E-04
